CCSDS_OMM_VERS = 2.0
CREATION_DATE  = 
ORIGINATOR     = 

OBJECT_NAME    = STARLINK-36799
OBJECT_ID      = 2026-037AC
CENTER_NAME    = EARTH
REF_FRAME      = TEME
TIME_SYSTEM    = UTC
MEAN_ELEMENT_THEORY = SGP/SGP4

EPOCH          = 2026-03-06T14:00:01.000224
MEAN_MOTION    = 15.92364585
ECCENTRICITY   = .00014699
INCLINATION    = 42.9997
RA_OF_ASC_NODE = 217.4817
ARG_OF_PERICENTER = 275.0600
MEAN_ANOMALY   = 336.4847

EPHEMERIS_TYPE = 0
CLASSIFICATION_TYPE = U
NORAD_CAT_ID   = 67958
ELEMENT_SET_NO = 999
REV_AT_EPOCH   = 269
BSTAR          = -.49618796E-2
MEAN_MOTION_DOT = -.1730864E-1
MEAN_MOTION_DDOT = .82884704E-3

CCSDS_OMM_VERS = 2.0
CREATION_DATE  = 
ORIGINATOR     = 

OBJECT_NAME    = STARLINK-36834
OBJECT_ID      = 2026-037AD
CENTER_NAME    = EARTH
REF_FRAME      = TEME
TIME_SYSTEM    = UTC
MEAN_ELEMENT_THEORY = SGP/SGP4

EPOCH          = 2026-03-06T14:00:01.000224
MEAN_MOTION    = 15.92578171
ECCENTRICITY   = .00011836
INCLINATION    = 42.9997
RA_OF_ASC_NODE = 217.4649
ARG_OF_PERICENTER = 267.7150
MEAN_ANOMALY   = 350.3288

EPHEMERIS_TYPE = 0
CLASSIFICATION_TYPE = U
NORAD_CAT_ID   = 67959
ELEMENT_SET_NO = 999
REV_AT_EPOCH   = 269
BSTAR          = -.4903091E-2
MEAN_MOTION_DOT = -.172953E-1
MEAN_MOTION_DDOT = .82940675E-3

CCSDS_OMM_VERS = 2.0
CREATION_DATE  = 
ORIGINATOR     = 

OBJECT_NAME    = STARLINK-36841
OBJECT_ID      = 2026-037AE
CENTER_NAME    = EARTH
REF_FRAME      = TEME
TIME_SYSTEM    = UTC
MEAN_ELEMENT_THEORY = SGP/SGP4

EPOCH          = 2026-03-06T14:00:01.000224
MEAN_MOTION    = 15.92481470
ECCENTRICITY   = .0001276
INCLINATION    = 42.9996
RA_OF_ASC_NODE = 217.4733
ARG_OF_PERICENTER = 273.9371
MEAN_ANOMALY   = 340.7164

EPHEMERIS_TYPE = 0
CLASSIFICATION_TYPE = U
NORAD_CAT_ID   = 67960
ELEMENT_SET_NO = 999
REV_AT_EPOCH   = 269
BSTAR          = -.49479685E-2
MEAN_MOTION_DOT = -.1736475E-1
MEAN_MOTION_DDOT = .83477705E-3

CCSDS_OMM_VERS = 2.0
CREATION_DATE  = 
ORIGINATOR     = 

OBJECT_NAME    = STARLINK-36912
OBJECT_ID      = 2026-038A
CENTER_NAME    = EARTH
REF_FRAME      = TEME
TIME_SYSTEM    = UTC
MEAN_ELEMENT_THEORY = SGP/SGP4

EPOCH          = 2026-03-06T14:00:01.000224
MEAN_MOTION    = 15.97508368
ECCENTRICITY   = .00012956
INCLINATION    = 97.2757
RA_OF_ASC_NODE = 75.6221
ARG_OF_PERICENTER = 96.8251
MEAN_ANOMALY   = 138.2021

EPHEMERIS_TYPE = 0
CLASSIFICATION_TYPE = U
NORAD_CAT_ID   = 67961
ELEMENT_SET_NO = 999
REV_AT_EPOCH   = 269
BSTAR          = -.37070372E-2
MEAN_MOTION_DOT = -.1622189E-1
MEAN_MOTION_DDOT = .78126366E-3

CCSDS_OMM_VERS = 2.0
CREATION_DATE  = 
ORIGINATOR     = 

OBJECT_NAME    = STARLINK-36881
OBJECT_ID      = 2026-038B
CENTER_NAME    = EARTH
REF_FRAME      = TEME
TIME_SYSTEM    = UTC
MEAN_ELEMENT_THEORY = SGP/SGP4

EPOCH          = 2026-03-06T14:00:01.000224
MEAN_MOTION    = 15.97582401
ECCENTRICITY   = .00012327
INCLINATION    = 97.2755
RA_OF_ASC_NODE = 75.6228
ARG_OF_PERICENTER = 95.0702
MEAN_ANOMALY   = 142.0729

EPHEMERIS_TYPE = 0
CLASSIFICATION_TYPE = U
NORAD_CAT_ID   = 67962
ELEMENT_SET_NO = 999
REV_AT_EPOCH   = 269
BSTAR          = -.36507068E-2
MEAN_MOTION_DOT = -.160423E-1
MEAN_MOTION_DDOT = .76586788E-3

CCSDS_OMM_VERS = 2.0
CREATION_DATE  = 
ORIGINATOR     = 

OBJECT_NAME    = STARLINK-36357
OBJECT_ID      = 2026-038C
CENTER_NAME    = EARTH
REF_FRAME      = TEME
TIME_SYSTEM    = UTC
MEAN_ELEMENT_THEORY = SGP/SGP4

EPOCH          = 2026-03-06T14:00:01.000224
MEAN_MOTION    = 15.97825588
ECCENTRICITY   = .00013991
INCLINATION    = 97.2750
RA_OF_ASC_NODE = 75.6254
ARG_OF_PERICENTER = 95.5499
MEAN_ANOMALY   = 147.2669

EPHEMERIS_TYPE = 0
CLASSIFICATION_TYPE = U
NORAD_CAT_ID   = 67963
ELEMENT_SET_NO = 999
REV_AT_EPOCH   = 269
BSTAR          = -.35729955E-2
MEAN_MOTION_DOT = -.1591369E-1
MEAN_MOTION_DDOT = .75649395E-3

CCSDS_OMM_VERS = 2.0
CREATION_DATE  = 
ORIGINATOR     = 

OBJECT_NAME    = STARLINK-36349
OBJECT_ID      = 2026-038D
CENTER_NAME    = EARTH
REF_FRAME      = TEME
TIME_SYSTEM    = UTC
MEAN_ELEMENT_THEORY = SGP/SGP4

EPOCH          = 2026-03-06T14:00:01.000224
MEAN_MOTION    = 15.97714056
ECCENTRICITY   = .00013242
INCLINATION    = 97.2749
RA_OF_ASC_NODE = 75.6237
ARG_OF_PERICENTER = 91.1714
MEAN_ANOMALY   = 148.8047

EPHEMERIS_TYPE = 0
CLASSIFICATION_TYPE = U
NORAD_CAT_ID   = 67964
ELEMENT_SET_NO = 999
REV_AT_EPOCH   = 269
BSTAR          = -.36556747E-2
MEAN_MOTION_DOT = -.1617912E-1
MEAN_MOTION_DDOT = .77918353E-3

CCSDS_OMM_VERS = 2.0
CREATION_DATE  = 
ORIGINATOR     = 

OBJECT_NAME    = STARLINK-36806
OBJECT_ID      = 2026-038E
CENTER_NAME    = EARTH
REF_FRAME      = TEME
TIME_SYSTEM    = UTC
MEAN_ELEMENT_THEORY = SGP/SGP4

EPOCH          = 2026-03-06T14:00:01.000224
MEAN_MOTION    = 15.97974891
ECCENTRICITY   = .00012716
INCLINATION    = 97.2744
RA_OF_ASC_NODE = 75.6266
ARG_OF_PERICENTER = 91.8413
MEAN_ANOMALY   = 154.2658

EPHEMERIS_TYPE = 0
CLASSIFICATION_TYPE = U
NORAD_CAT_ID   = 67965
ELEMENT_SET_NO = 999
REV_AT_EPOCH   = 269
BSTAR          = -.35775116E-2
MEAN_MOTION_DOT = -.1606315E-1
MEAN_MOTION_DDOT = .77102195E-3

CCSDS_OMM_VERS = 2.0
CREATION_DATE  = 
ORIGINATOR     = 

OBJECT_NAME    = STARLINK-36820
OBJECT_ID      = 2026-038F
CENTER_NAME    = EARTH
REF_FRAME      = TEME
TIME_SYSTEM    = UTC
MEAN_ELEMENT_THEORY = SGP/SGP4

EPOCH          = 2026-03-06T14:00:01.000224
MEAN_MOTION    = 15.98090436
ECCENTRICITY   = .00012344
INCLINATION    = 97.2745
RA_OF_ASC_NODE = 75.6278
ARG_OF_PERICENTER = 95.4422
MEAN_ANOMALY   = 153.4233

EPHEMERIS_TYPE = 0
CLASSIFICATION_TYPE = U
NORAD_CAT_ID   = 67966
ELEMENT_SET_NO = 999
REV_AT_EPOCH   = 269
BSTAR          = -.35313712E-2
MEAN_MOTION_DOT = -.1595843E-1
MEAN_MOTION_DDOT = .76266297E-3

CCSDS_OMM_VERS = 2.0
CREATION_DATE  = 
ORIGINATOR     = 

OBJECT_NAME    = STARLINK-36819
OBJECT_ID      = 2026-038G
CENTER_NAME    = EARTH
REF_FRAME      = TEME
TIME_SYSTEM    = UTC
MEAN_ELEMENT_THEORY = SGP/SGP4

EPOCH          = 2026-03-06T14:00:01.000224
MEAN_MOTION    = 15.98219190
ECCENTRICITY   = .00012641
INCLINATION    = 97.2743
RA_OF_ASC_NODE = 75.6290
ARG_OF_PERICENTER = 91.2978
MEAN_ANOMALY   = 160.5395

EPHEMERIS_TYPE = 0
CLASSIFICATION_TYPE = U
NORAD_CAT_ID   = 67967
ELEMENT_SET_NO = 999
REV_AT_EPOCH   = 269
BSTAR          = -.35139403E-2
MEAN_MOTION_DOT = -.1599257E-1
MEAN_MOTION_DDOT = .76678557E-3

CCSDS_OMM_VERS = 2.0
CREATION_DATE  = 
ORIGINATOR     = 

OBJECT_NAME    = STARLINK-36812
OBJECT_ID      = 2026-038H
CENTER_NAME    = EARTH
REF_FRAME      = TEME
TIME_SYSTEM    = UTC
MEAN_ELEMENT_THEORY = SGP/SGP4

EPOCH          = 2026-03-06T14:00:01.000224
MEAN_MOTION    = 15.98326788
ECCENTRICITY   = .00012133
INCLINATION    = 97.2739
RA_OF_ASC_NODE = 75.6297
ARG_OF_PERICENTER = 96.2224
MEAN_ANOMALY   = 158.1627

EPHEMERIS_TYPE = 0
CLASSIFICATION_TYPE = U
NORAD_CAT_ID   = 67968
ELEMENT_SET_NO = 999
REV_AT_EPOCH   = 269
BSTAR          = -.34890102E-2
MEAN_MOTION_DOT = -.1597393E-1
MEAN_MOTION_DDOT = .7660298E-3

CCSDS_OMM_VERS = 2.0
CREATION_DATE  = 
ORIGINATOR     = 

OBJECT_NAME    = STARLINK-36709
OBJECT_ID      = 2026-038J
CENTER_NAME    = EARTH
REF_FRAME      = TEME
TIME_SYSTEM    = UTC
MEAN_ELEMENT_THEORY = SGP/SGP4

EPOCH          = 2026-03-06T14:00:01.000224
MEAN_MOTION    = 15.98594766
ECCENTRICITY   = .00012423
INCLINATION    = 97.2740
RA_OF_ASC_NODE = 75.6325
ARG_OF_PERICENTER = 107.2569
MEAN_ANOMALY   = 153.2013

EPHEMERIS_TYPE = 0
CLASSIFICATION_TYPE = U
NORAD_CAT_ID   = 67969
ELEMENT_SET_NO = 999
REV_AT_EPOCH   = 269
BSTAR          = -.34502321E-2
MEAN_MOTION_DOT = -.1603203E-1
MEAN_MOTION_DDOT = .77350508E-3

